MEAN_MOTION;ECCENTRICITY;INCLINATION;RA_OF_ASC_NODE;ARG_OF_PERICENTER;MEAN_ANOMALY;BSTAR;MEAN_MOTION_DOT;MEAN_MOTION_DDOT;TYPE
1.00107975;0.0017568;15.1306;0.7406;12.6993;110.0414;0;5.0E-8;0;Intelsat
1.00108056;0.001758;15.1305;0.7373;12.8162;227.0446;0;4.0E-8;0;Intelsat
1.00108568;0.0017605;15.13;0.7216;12.973;71.2426;0;-4.0E-8;0;Intelsat
1.00108622;0.0017601;15.13;0.7192;12.9598;157.9712;0;-5.0E-8;0;Intelsat
1.00108882;0.0017621;15.1296;0.7101;13.1019;120.9942;0;-8.0E-8;0;Intelsat
1.00108957;0.0017628;15.1295;0.7073;13.1477;223.2494;0;-9.0E-8;0;Intelsat
1.00109248;0.0017657;15.1292;0.6967;13.2568;249.8953;0;-1.2E-7;0;Intelsat
1.00109576;0.0017689;15.1289;0.6861;13.4554;278.112;0;-1.5E-7;0;Intelsat
1.00109966;0.0017736;15.1284;0.6696;13.8212;162.5363;0;-1.9E-7;0;Intelsat
1.00110088;0.0017742;15.1283;0.6675;13.8867;238.7433;0;-2.0E-7;0;Intelsat
1.00111492;0.001788;15.1265;0.6106;15.3142;153.7114;0;-3.4E-7;0;Intelsat
1.00111492;0.001788;15.1265;0.6106;15.3142;153.7114;0;-3.4E-7;0;Intelsat
1.00111749;0.0017893;15.1261;0.6007;15.4396;155.7785;0;-3.7E-7;0;Intelsat
1.00111965;0.0017901;15.1258;0.5908;15.7039;157.6792;0;-4.0E-7;0;Intelsat
1.0011221;0.001791;15.1254;0.579;16.1054;234.7427;0;-4.4E-7;0;Intelsat
1.00112362;0.0017906;15.1252;0.5711;16.2921;161.452;0;-4.7E-7;0;Intelsat
1.00112642;0.0017904;15.1247;0.5584;16.6457;267.9026;0;-5.3E-7;0;Intelsat
1.00112804;0.0017894;15.1244;0.5491;16.9131;249.3731;0;-5.8E-7;0;Intelsat
1.00112966;0.0017879;15.1242;0.5415;17.1279;167.1792;0;-6.2E-7;0;Intelsat
1.00113151;0.001786;15.1239;0.5315;17.3941;169.0974;0;-6.8E-7;0;Intelsat
1.00113319;0.001784;15.1235;0.5218;17.6372;158.7012;0;-7.4E-7;0;Intelsat
1.00113588;0.0017797;15.1229;0.5023;18.0968;149.1777;0;-8.8E-7;0;Intelsat
1.00113581;0.0017794;15.1229;0.5016;18.1164;174.9396;0;-8.8E-7;0;Intelsat
1.00113725;0.0017777;15.1226;0.4923;18.3019;151.1518;0;-9.5E-7;0;Intelsat
1.00113829;0.001776;15.1223;0.4824;18.482;153.1552;0;-1.01E-6;0;Intelsat
1.00113936;0.0017746;15.122;0.4724;18.659;155.1407;0;-1.08E-6;0;Intelsat
1.00114094;0.0017729;15.1214;0.4527;18.9951;159.2085;0;-1.18E-6;0;Intelsat
1.00114204;0.0017723;15.121;0.4428;19.196;161.2202;0;-1.22E-6;0;Intelsat
1.00114269;0.0017722;15.1207;0.4329;19.3745;163.2175;0;-1.26E-6;0;Intelsat
1.00114347;0.0017725;15.1204;0.4229;19.5697;165.2105;0;-1.29E-6;0;Intelsat
1.0011436;0.0017727;15.12;0.4129;19.8153;167.172;0;-1.32E-6;0;Intelsat
1.00114263;0.0017659;15.1196;0.4029;21.3432;167.816;0;-1.35E-6;0;Intelsat
1.00114323;0.001767;15.1193;0.3935;21.4175;151.6635;0;-1.37E-6;0;Intelsat
1.00114346;0.0017669;15.1193;0.393;21.4764;169.8788;0;-1.37E-6;0;Intelsat
1.00114448;0.0017687;15.119;0.3837;21.3785;146.3659;0;-1.39E-6;0;Intelsat
1.00114427;0.0017719;15.119;0.383;20.7757;172.7823;0;-1.39E-6;0;Intelsat
1.00114478;0.0017754;15.1186;0.3738;20.3412;149.605;0;-1.41E-6;0;Intelsat
1.00114501;0.0017763;15.1183;0.3643;20.6392;139.7323;0;-1.44E-6;0;Intelsat
1.00114465;0.0017784;15.1182;0.3621;20.6179;223.6409;0;-1.44E-6;0;Intelsat
1.00114515;0.0017793;15.1179;0.3551;20.7348;120.556;0;-1.46E-6;0;Intelsat
1.0011449;0.0017801;15.1176;0.3444;21.0145;155.5055;0;-1.48E-6;0;Intelsat
1.00114466;0.00178;15.1175;0.3417;21.1067;255.6794;0;-1.49E-6;0;Intelsat
1.00114443;0.0017788;15.1169;0.3248;21.5405;159.3255;0;-1.54E-6;0;Intelsat
1.00114436;0.0017775;15.1165;0.3151;21.8014;161.249;0;-1.57E-6;0;Intelsat
1.00114383;0.0017754;15.1163;0.3106;22.0763;326.6117;0;-1.58E-6;0;Intelsat
1.00114439;0.0017748;15.1161;0.3051;22.2213;169.4589;0;-1.6E-6;0;Intelsat
1.00114371;0.0017728;15.1157;0.2929;22.5641;255.4685;0;-1.65E-6;0;Intelsat
1.00114332;0.0017698;15.1151;0.2773;22.8965;110.5217;0;-1.72E-6;0;Intelsat
1.0011427;0.0017695;15.1149;0.2713;23.0161;324.0832;0;-1.75E-6;0;Intelsat
1.00114158;0.0017621;15.1142;0.2515;23.494;323.2074;0;-1.86E-6;0;Intelsat
1.00114083;0.0017599;15.114;0.246;23.5666;165.6543;0;-1.89E-6;0;Intelsat
1.00113857;0.0017504;15.1131;0.2228;24.0535;290.6576;0;-2.04E-6;0;Intelsat
1.00113781;0.0017475;15.1129;0.2167;24.1674;154.9827;0;-2.08E-6;0;Intelsat
1.00113743;0.001747;15.1127;0.2122;24.2048;320.3212;0;-2.1E-6;0;Intelsat
1.00113696;0.0017442;15.1125;0.2068;24.3138;157.0067;0;-2.13E-6;0;Intelsat
1.0011357;0.0017406;15.1122;0.1967;24.4664;169.6273;0;-2.19E-6;0;Intelsat
1.00113502;0.0017397;15.112;0.1921;24.5317;340.0585;0;-2.21E-6;0;Intelsat
1.00113264;0.0017356;15.1114;0.1773;24.7284;163.1634;0;-2.27E-6;0;Intelsat
1.0011295;0.0017321;15.1106;0.1575;24.9929;167.2597;0;-2.33E-6;0;Intelsat
1.00112863;0.0017306;15.1105;0.1533;25.0807;322.461;0;-2.33E-6;0;Intelsat
1.00112663;0.0017296;15.1101;0.1433;25.2151;331.1997;0;-2.35E-6;0;Intelsat
1.00112605;0.0017293;15.1099;0.1386;25.3023;145.509;0;-2.36E-6;0;Intelsat
1.00112524;0.0017287;15.1097;0.1337;25.3679;326.5196;0;-2.37E-6;0;Intelsat
1.00112279;0.0017273;15.1093;0.1238;25.5436;328.5447;0;-2.39E-6;0;Intelsat
1.0011221;0.0017267;15.1091;0.1189;25.6498;149.5239;0;-2.39E-6;0;Intelsat
1.00112136;0.0017259;15.1089;0.114;25.74;330.5301;0;-2.4E-6;0;Intelsat
1.00111907;0.0017251;15.1085;0.1043;25.9197;324.8583;0;-2.41E-6;0;Intelsat
1.00111719;0.001725;15.1081;0.0943;26.0901;334.5278;0;-2.42E-6;0;Intelsat
1.00111501;0.0017233;15.1077;0.0844;26.3052;336.4823;0;-2.43E-6;0;Intelsat
1.00111399;0.0017227;15.1075;0.0794;26.414;159.6843;0;-2.44E-6;0;Intelsat
1.00111137;0.0017214;15.1071;0.0696;26.6094;161.2782;0;-2.46E-6;0;Intelsat
1.00111055;0.00172;15.1068;0.0647;26.7373;340.4049;0;-2.46E-6;0;Intelsat
1.00110724;0.0017162;15.1062;0.0502;27.093;151.1676;0;-2.48E-6;0;Intelsat
1.00110719;0.0017164;15.1062;0.0499;27.0951;163.3363;0;-2.49E-6;0;Intelsat
1.00110386;0.0017119;15.1056;0.035;27.4375;346.165;0;-2.51E-6;0;Intelsat
1.00110055;0.0017055;15.105;0.0209;27.7938;143.3212;0;-2.55E-6;0;Intelsat
1.00110031;0.001706;15.105;0.0204;27.7842;161.7856;0;-2.55E-6;0;Intelsat
1.00109822;0.001702;15.1046;0.0111;27.9915;145.2992;0;-2.58E-6;0;Intelsat
1.00109549;0.0016969;15.1042;0.0011;28.238;147.2144;0;-2.61E-6;0;Intelsat
1.00109415;0.0016964;15.1038;359.9962;28.3226;328.195;0;-2.63E-6;0;Intelsat
1.00109291;0.001693;15.1036;359.9913;28.4376;149.1951;0;-2.65E-6;0;Intelsat
1.00108764;0.0016821;15.1028;359.9714;28.8187;153.1363;0;-2.74E-6;0;Intelsat
1.00108605;0.0016798;15.1026;359.9664;28.9082;334.102;0;-2.77E-6;0;Intelsat
1.00108445;0.0016757;15.1024;359.961;28.9955;171.7856;0;-2.8E-6;0;Intelsat
1.0010817;0.0016695;15.1021;359.9514;29.1709;157.1161;0;-2.84E-6;0;Intelsat
1.00107908;0.0016644;15.1017;359.9414;29.2913;159.1676;0;-2.88E-6;0;Intelsat
1.00107908;0.0016644;15.1017;359.9414;29.2913;159.1676;0;-2.89E-6;0;Intelsat
1.00107784;0.0016642;15.1016;359.9364;29.2987;340.2265;0;-2.9E-6;0;Intelsat
1.00107448;0.0016596;15.1012;359.9265;29.3918;342.309;0;-2.94E-6;0;Intelsat
1.00107275;0.0016571;15.101;359.9215;29.4402;163.324;0;-2.96E-6;0;Intelsat
1.00106979;0.0016531;15.1006;359.9123;29.5394;139.593;0;-2.98E-6;0;Intelsat
1.00106787;0.0016513;15.1004;359.9074;29.5634;320.6426;0;-2.99E-6;0;Intelsat
1.00106476;0.0016481;15.1;359.8972;29.6354;331.6427;0;-3.01E-6;0;Intelsat
1.00106326;0.0016466;15.0998;359.8925;29.695;143.7449;0;-3.01E-6;0;Intelsat
1.00106002;0.0016442;15.0992;359.8826;29.7747;145.8231;0;-3.02E-6;0;Intelsat
1.00105825;0.0016415;15.099;359.8776;29.8382;326.8278;0;-3.02E-6;0;Intelsat
1.00105636;0.0016403;15.0988;359.8725;29.9015;155.6906;0;-3.02E-6;0;Intelsat
1.00105335;0.0016381;15.0983;359.8628;30.0061;149.8967;0;-3.02E-6;0;Intelsat
1.00104971;0.0016367;15.0978;359.8527;30.1255;154.5063;0;-3.02E-6;0;Intelsat
1.0010477;0.0016344;15.0976;359.8478;30.2151;334.2755;0;-3.02E-6;0;Intelsat
1.00104593;0.001633;15.0973;359.8428;30.2908;159.4157;0;-3.01E-6;0;Intelsat
1.00104412;0.0016308;15.0972;359.838;30.3727;334.9063;0;-3.01E-6;0;Intelsat
1.00104104;0.001627;15.0967;359.828;30.5556;336.8582;0;-3.01E-6;0;Intelsat
1.00103711;0.0016251;15.0963;359.8182;30.6982;338.8704;0;-3.0E-6;0;Intelsat
1.00103348;0.0016203;15.0959;359.8083;30.9042;340.8261;0;-2.99E-6;0;Intelsat
1.00103203;0.0016192;15.0957;359.8034;30.9859;161.8122;0;-2.99E-6;0;Intelsat
1.00102999;0.0016157;15.0955;359.7984;31.1136;342.7311;0;-2.99E-6;0;Intelsat
1.00102827;0.0016174;15.0952;359.7937;31.1401;156.5562;0;-2.98E-6;0;Intelsat
1.00102528;0.0016135;15.0948;359.7843;31.3187;139.9593;0;-2.98E-6;0;Intelsat
1.00102132;0.0016085;15.0944;359.7745;31.5296;141.9047;0;-2.98E-6;0;Intelsat
1.00101811;0.0016046;15.094;359.7645;31.7105;143.8392;0;-2.98E-6;0;Intelsat
1.00101811;0.0016046;15.094;359.7645;31.7105;143.8392;0;-2.98E-6;0;Intelsat
1.00101434;0.0015997;15.0935;359.7544;31.9026;154.2635;0;-2.98E-6;0;Intelsat
1.00101129;0.001595;15.0931;359.7446;32.0664;147.7554;0;-2.99E-6;0;Intelsat
1.00101129;0.001595;15.0931;359.7446;32.0664;147.7554;0;-2.99E-6;0;Intelsat
1.00100725;0.0015896;15.0927;359.7346;32.2469;149.7085;0;-3.0E-6;0;Intelsat
1.00100364;0.0015861;15.0922;359.7241;32.3752;170.0565;0;-3.02E-6;0;Intelsat
1.00100364;0.0015861;15.0922;359.7241;32.3752;170.0565;0;-3.02E-6;0;Intelsat
1.00100146;0.0015832;15.092;359.7191;32.4588;350.8496;0;-3.03E-6;0;Intelsat
1.00099602;0.0015728;15.0914;359.7045;32.66;155.6936;0;-3.07E-6;0;Intelsat
1.00099413;0.0015703;15.0912;359.6993;32.7115;343.3473;0;-3.08E-6;0;Intelsat
1.00098876;0.0015598;15.0906;359.6843;32.8593;165.9621;0;-3.12E-6;0;Intelsat
1.00098669;0.0015569;15.0904;359.6793;32.8983;346.3758;0;-3.14E-6;0;Intelsat
1.00098502;0.0015524;15.0902;359.6742;32.9404;170.9602;0;-3.15E-6;0;Intelsat
1.00098106;0.0015477;15.0898;359.6641;32.9814;175.8779;0;-3.17E-6;0;Intelsat
1.00097736;0.0015444;15.0895;359.6548;33.004;153.8441;0;-3.18E-6;0;Intelsat
1.00097633;0.0015431;15.0894;359.6523;32.9882;246.4019;0;-3.19E-6;0;Intelsat
1.00097326;0.0015392;15.0891;359.6447;33.0337;161.6157;0;-3.19E-6;0;Intelsat
1.0009708;0.0015367;15.0889;359.6393;33.0383;358.4779;0;-3.19E-6;0;Intelsat
1.00096297;0.0015285;15.0881;359.6197;33.0842;352.7823;0;-3.18E-6;0;Intelsat
1.00096147;0.0015275;15.0879;359.6154;33.1119;148.5531;0;-3.17E-6;0;Intelsat
